H1 CPF  1  DLR 2021 02 06 10  5372 technosat            
H2  1704205 6203    42829 2021 02 06 00 00 00 2021 02 13 00 00 00    60 1 1  0 0 0
H9
10 0 59255  14400.000000  0       1584524.266       6801572.790        -30196.650
10 0 59255  14460.000000  0       1668628.073       6768321.115        418806.416
10 0 59255  14520.000000  0       1745308.667       6705952.479        866038.460
10 0 59255  14580.000000  0       1813990.481       6614794.920       1309608.360
10 0 59255  14640.000000  0       1874135.129       6495302.977       1747640.442
10 0 59255  14700.000000  0       1925244.787       6348055.396       2178282.551
10 0 59255  14760.000000  0       1966865.363       6173752.248       2599713.978
10 0 59255  14820.000000  0       1998589.451       5973211.539       3010153.251
10 0 59255  14880.000000  0       2020059.063       5747365.273       3407865.811
10 0 59255  14940.000000  0       2030968.073       5497254.891       3791171.441
10 0 59255  15000.000000  0       2031064.353       5224026.263       4158451.325
10 0 59255  15060.000000  0       2020151.705       4928924.313       4508154.952
10 0 59255  15120.000000  0       1998091.502       4613286.964       4838806.717
10 0 59255  15180.000000  0       1964803.926       4278538.754       5149011.901
10 0 59255  15240.000000  0       1920268.937       3926184.296       5437462.316
10 0 59255  15300.000000  0       1864527.020       3557801.439       5702941.637
10 0 59255  15360.000000  0       1797679.598       3175034.122       5944330.399
10 0 59255  15420.000000  0       1719889.117       2779584.952       6160610.584
10 0 59255  15480.000000  0       1631378.809       2373207.557       6350869.758
10 0 59255  15540.000000  0       1532432.162       1957698.753       6514304.749
10 0 59255  15600.000000  0       1423392.090       1534890.548       6650224.864
10 0 59255  15660.000000  0       1304659.774       1106642.087       6758054.609
10 0 59255  15720.000000  0       1176693.234        674831.564       6837335.953
10 0 59255  15780.000000  0       1040005.617        241348.146       6887730.203
10 0 59255  15840.000000  0        895163.190       -191916.165       6909019.528
10 0 59255  15900.000000  0        742783.021       -623074.797       6901107.980
10 0 59255  15960.000000  0        583530.404      -1050254.789       6864021.933
10 0 59255  16020.000000  0        418115.989      -1471604.862       6797910.113
10 0 59255  16080.000000  0        247292.658      -1885303.420       6703043.119
10 0 59255  16140.000000  0         71852.143      -2289566.418       6579812.521
10 0 59255  16200.000000  0       -107378.594      -2682655.167       6428729.411
10 0 59255  16260.000000  0       -289541.154      -3062883.839       6250422.374
10 0 59255  16320.000000  0       -473749.684      -3428626.704       6045635.096
10 0 59255  16380.000000  0       -659095.077      -3778325.153       5815223.530
10 0 59255  16440.000000  0       -844649.310      -4110494.450       5560152.642
10 0 59255  16500.000000  0      -1029470.003      -4423730.270       5281492.780
10 0 59255  16560.000000  0      -1212605.175      -4716714.969       4980415.504
10 0 59255  16620.000000  0      -1393098.102      -4988223.501       4658188.902
10 0 59255  16680.000000  0      -1569992.257      -5237128.937       4316172.417
10 0 59255  16740.000000  0      -1742336.312      -5462407.535       3955811.214
10 0 59255  16800.000000  0      -1909189.203      -5663143.317       3578630.122
10 0 59255  16860.000000  0      -2069625.201      -5838532.111       3186227.193
10 0 59255  16920.000000  0      -2222738.962      -5987885.092       2780266.934
10 0 59255  16980.000000  0      -2367650.549      -6110631.812       2362473.171
10 0 59255  17040.000000  0      -2503510.345      -6206322.647       1934621.578
10 0 59255  17100.000000  0      -2629503.845      -6274630.683       1498531.961
10 0 59255  17160.000000  0      -2744856.335      -6315353.000       1056060.277
10 0 59255  17220.000000  0      -2848837.379      -6328411.325        609090.462
10 0 59255  17280.000000  0      -2940765.108      -6313852.083        159526.115
10 0 59255  17340.000000  0      -3020010.283      -6271845.833       -290717.940
10 0 59255  17400.000000  0      -3086000.105      -6202686.068       -739724.155
10 0 59255  17460.000000  0      -3138221.751      -6106787.397      -1185580.776
10 0 59255  17520.000000  0      -3176225.596      -5984683.116      -1626390.318
10 0 59255  17580.000000  0      -3199628.134      -5837022.203      -2060277.949
10 0 59255  17640.000000  0      -3208114.546      -5664565.749      -2485399.769
10 0 59255  17700.000000  0      -3201440.906      -5468182.825      -2899950.909
10 0 59255  17760.000000  0      -3179436.001      -5248845.829      -3302173.398
10 0 59255  17820.000000  0      -3142002.764      -5007625.360      -3690363.737
10 0 59255  17880.000000  0      -3089119.327      -4745684.671      -4062880.156
10 0 59255  17940.000000  0      -3020839.702      -4464273.759      -4418149.546
10 0 59255  18000.000000  0      -2937294.079      -4164723.090      -4754674.043
10 0 59255  18060.000000  0      -2838688.745      -3848437.006      -5071037.222
10 0 59255  18120.000000  0      -2725305.647      -3516886.864      -5365909.886
10 0 59255  18180.000000  0      -2597501.577      -3171603.933      -5638055.449
10 0 59255  18240.000000  0      -2455706.994      -2814172.099      -5886334.867
10 0 59255  18300.000000  0      -2300424.466      -2446220.420      -6109711.149
10 0 59255  18360.000000  0      -2132226.749      -2069415.537      -6307253.406
10 0 59255  18420.000000  0      -1951754.534      -1685453.999      -6478140.373
10 0 59255  18480.000000  0      -1759713.902      -1296054.572      -6621663.461
10 0 59255  18540.000000  0      -1556873.481       -902950.533      -6737229.356
10 0 59255  18600.000000  0      -1344061.328       -507881.987      -6824362.112
10 0 59255  18660.000000  0      -1122161.544       -112588.274      -6882704.830
10 0 59255  18720.000000  0       -892110.577        281199.544      -6912020.912
10 0 59255  18780.000000  0       -654893.259        671766.119      -6912194.865
10 0 59255  18840.000000  0       -411538.628       1057419.194      -6883232.613
10 0 59255  18900.000000  0       -163115.544       1436496.745      -6825261.280
10 0 59255  18960.000000  0         89271.850       1807373.930      -6738528.696
10 0 59255  19020.000000  0        344488.967       2168470.004      -6623402.468
10 0 59255  19080.000000  0        601375.866       2518254.965      -6480368.499
10 0 59255  19140.000000  0        858752.464       2855255.972      -6310029.039
10 0 59255  19200.000000  0       1115423.839       3178063.513      -6113100.250
10 0 59255  19260.000000  0       1370185.655       3485337.252      -5890409.355
10 0 59255  19320.000000  0       1621829.733       3775811.567      -5642891.414
10 0 59255  19380.000000  0       1869149.706       4048300.817      -5371585.652
10 0 59255  19440.000000  0       2110946.735       4301704.259      -5077631.350
10 0 59255  19500.000000  0       2346035.273       4535010.641      -4762263.312
10 0 59255  19560.000000  0       2573248.831       4747302.400      -4426806.859
10 0 59255  19620.000000  0       2791445.692       4937759.406      -4072672.445
10 0 59255  19680.000000  0       2999514.605       5105662.275      -3701349.928
10 0 59255  19740.000000  0       3196380.425       5250395.280      -3314402.497
10 0 59255  19800.000000  0       3381009.663       5371448.820      -2913460.178
10 0 59255  19860.000000  0       3552415.887       5468421.305      -2500212.996
10 0 59255  19920.000000  0       3709664.909       5541020.569      -2076403.912
10 0 59255  19980.000000  0       3851879.807       5589064.826      -1643821.477
10 0 59255  20040.000000  0       3978245.696       5612483.077      -1204292.207
10 0 59255  20100.000000  0       4088014.222       5611314.990       -759672.778
10 0 59255  20160.000000  0       4180507.779       5585710.242       -311842.074
10 0 59255  20220.000000  0       4255123.423       5535927.337        137306.898
10 0 59255  20280.000000  0       4311336.416       5462331.872        585875.165
10 0 59255  20340.000000  0       4348703.379       5365394.275       1031965.962
10 0 59255  20400.000000  0       4366865.039       5245687.078       1473692.831
10 0 59255  20460.000000  0       4365548.642       5103881.849       1909187.662
10 0 59255  20520.000000  0       4344570.082       4940745.649       2336608.814
10 0 59255  20580.000000  0       4303835.450       4757136.864       2754149.215
10 0 59255  20640.000000  0       4243342.002       4554000.565       3160044.046
10 0 59255  20700.000000  0       4163178.811       4332363.680       3552578.185
10 0 59255  20760.000000  0       4063527.023       4093329.732       3930093.508
10 0 59255  20820.000000  0       3944659.661       3838073.209       4290995.808
10 0 59255  20880.000000  0       3806941.069       3567833.799       4633761.488
10 0 59255  20940.000000  0       3650825.811       3283910.374       4956944.110
10 0 59255  21000.000000  0       3476857.002       2987654.534       5259180.483
10 0 59255  21060.000000  0       3285664.286       2680464.000       5539196.082
10 0 59255  21120.000000  0       3077961.564       2363776.058       5795810.167
10 0 59255  21180.000000  0       2854544.321       2039060.801       6027940.634
10 0 59255  21240.000000  0       2616286.537       1707814.263       6234608.431
10 0 59255  21300.000000  0       2364137.203       1371551.488       6414941.491
10 0 59255  21360.000000  0       2099116.526       1031799.628       6568178.190
10 0 59255  21420.000000  0       1822311.785        690091.090       6693670.400
10 0 59255  21480.000000  0       1534872.870        347956.737       6790886.102
10 0 59255  21540.000000  0       1238007.567          6919.150       6859411.601
99
